CCSDS_OMM_VERS = 2.0
CREATION_DATE  = 
ORIGINATOR     = 

OBJECT_NAME    = COSMOS 2550
OBJECT_ID      = 2021-056A
CENTER_NAME    = EARTH
REF_FRAME      = TEME
TIME_SYSTEM    = UTC
MEAN_ELEMENT_THEORY = SGP/SGP4

EPOCH          = 2025-11-03T08:10:34.768416
MEAN_MOTION    = 15.33838359
ECCENTRICITY   = .0008292
INCLINATION    = 67.1434
RA_OF_ASC_NODE = 63.1622
ARG_OF_PERICENTER = 270.1320
MEAN_ANOMALY   = 89.8885

EPHEMERIS_TYPE = 0
CLASSIFICATION_TYPE = U
NORAD_CAT_ID   = 48865
ELEMENT_SET_NO = 999
REV_AT_EPOCH   = 24408
BSTAR          = .24735E-3
MEAN_MOTION_DOT = .7956E-4
MEAN_MOTION_DDOT = 0

CCSDS_OMM_VERS = 2.0
CREATION_DATE  = 
ORIGINATOR     = 

OBJECT_NAME    = CZ-2C R/B
OBJECT_ID      = 2022-058K
CENTER_NAME    = EARTH
REF_FRAME      = TEME
TIME_SYSTEM    = UTC
MEAN_ELEMENT_THEORY = SGP/SGP4

EPOCH          = 2025-11-03T12:54:55.466208
MEAN_MOTION    = 15.45752030
ECCENTRICITY   = .0050081
INCLINATION    = 50.1917
RA_OF_ASC_NODE = 243.0601
ARG_OF_PERICENTER = 35.1335
MEAN_ANOMALY   = 325.2918

EPHEMERIS_TYPE = 0
CLASSIFICATION_TYPE = U
NORAD_CAT_ID   = 52794
ELEMENT_SET_NO = 999
REV_AT_EPOCH   = 19056
BSTAR          = .56952E-3
MEAN_MOTION_DOT = .29094E-3
MEAN_MOTION_DDOT = 0

CCSDS_OMM_VERS = 2.0
CREATION_DATE  = 
ORIGINATOR     = 

OBJECT_NAME    = GSLV R/B
OBJECT_ID      = 2022-138AN
CENTER_NAME    = EARTH
REF_FRAME      = TEME
TIME_SYSTEM    = UTC
MEAN_ELEMENT_THEORY = SGP/SGP4

EPOCH          = 2025-11-02T10:52:49.497024
MEAN_MOTION    = 14.95793014
ECCENTRICITY   = .001901
INCLINATION    = 87.3857
RA_OF_ASC_NODE = 208.9543
ARG_OF_PERICENTER = 252.5284
MEAN_ANOMALY   = 107.3870

EPHEMERIS_TYPE = 0
CLASSIFICATION_TYPE = U
NORAD_CAT_ID   = 54149
ELEMENT_SET_NO = 999
REV_AT_EPOCH   = 16490
BSTAR          = .27221E-3
MEAN_MOTION_DOT = .3073E-4
MEAN_MOTION_DDOT = 0

CCSDS_OMM_VERS = 2.0
CREATION_DATE  = 
ORIGINATOR     = 

OBJECT_NAME    = XRISM
OBJECT_ID      = 2023-137A
CENTER_NAME    = EARTH
REF_FRAME      = TEME
TIME_SYSTEM    = UTC
MEAN_ELEMENT_THEORY = SGP/SGP4

EPOCH          = 2025-11-02T12:18:16.409088
MEAN_MOTION    = 15.09705798
ECCENTRICITY   = .0008234
INCLINATION    = 31.0029
RA_OF_ASC_NODE = 25.1476
ARG_OF_PERICENTER = 199.0815
MEAN_ANOMALY   = 160.9515

EPHEMERIS_TYPE = 0
CLASSIFICATION_TYPE = U
NORAD_CAT_ID   = 57800
ELEMENT_SET_NO = 999
REV_AT_EPOCH   = 11854
BSTAR          = .38162E-3
MEAN_MOTION_DOT = .6402E-4
MEAN_MOTION_DDOT = 0

CCSDS_OMM_VERS = 2.0
CREATION_DATE  = 
ORIGINATOR     = 

OBJECT_NAME    = ACS3
OBJECT_ID      = 2024-077B
CENTER_NAME    = EARTH
REF_FRAME      = TEME
TIME_SYSTEM    = UTC
MEAN_ELEMENT_THEORY = SGP/SGP4

EPOCH          = 2025-11-03T19:01:54.545952
MEAN_MOTION    = 13.83081090
ECCENTRICITY   = .0039358
INCLINATION    = 97.3296
RA_OF_ASC_NODE = 272.0248
ARG_OF_PERICENTER = 31.0639
MEAN_ANOMALY   = 329.2836

EPHEMERIS_TYPE = 0
CLASSIFICATION_TYPE = U
NORAD_CAT_ID   = 59588
ELEMENT_SET_NO = 999
REV_AT_EPOCH   = 7675
BSTAR          = .13111E-1
MEAN_MOTION_DOT = .14425E-3
MEAN_MOTION_DDOT = 0

